CCSDS_OMM_VERS = 2.0
CREATION_DATE  = 
ORIGINATOR     = 

OBJECT_NAME    = ATLAS CENTAUR 2
OBJECT_ID      = 1963-047A
CENTER_NAME    = EARTH
REF_FRAME      = TEME
TIME_SYSTEM    = UTC
MEAN_ELEMENT_THEORY = SGP/SGP4

EPOCH          = 2025-11-17T16:33:45.506592
MEAN_MOTION    = 14.11538019
ECCENTRICITY   = .0549579
INCLINATION    = 30.3522
RA_OF_ASC_NODE = 101.3484
ARG_OF_PERICENTER = 173.5558
MEAN_ANOMALY   = 187.2469

EPHEMERIS_TYPE = 0
CLASSIFICATION_TYPE = U
NORAD_CAT_ID   = 694
ELEMENT_SET_NO = 999
REV_AT_EPOCH   = 11578
BSTAR          = .68799E-3
MEAN_MOTION_DOT = .5684E-4
MEAN_MOTION_DDOT = 0

CCSDS_OMM_VERS = 2.0
CREATION_DATE  = 
ORIGINATOR     = 

OBJECT_NAME    = THOR AGENA D R/B
OBJECT_ID      = 1964-002A
CENTER_NAME    = EARTH
REF_FRAME      = TEME
TIME_SYSTEM    = UTC
MEAN_ELEMENT_THEORY = SGP/SGP4

EPOCH          = 2025-11-18T00:30:40.263840
MEAN_MOTION    = 14.33938907
ECCENTRICITY   = .0032226
INCLINATION    = 99.1219
RA_OF_ASC_NODE = 324.3028
ARG_OF_PERICENTER = 222.4052
MEAN_ANOMALY   = 137.4640

EPHEMERIS_TYPE = 0
CLASSIFICATION_TYPE = U
NORAD_CAT_ID   = 733
ELEMENT_SET_NO = 999
REV_AT_EPOCH   = 22229
BSTAR          = .12886E-3
MEAN_MOTION_DOT = .312E-5
MEAN_MOTION_DDOT = 0

CCSDS_OMM_VERS = 2.0
CREATION_DATE  = 
ORIGINATOR     = 

OBJECT_NAME    = SL-3 R/B
OBJECT_ID      = 1964-053B
CENTER_NAME    = EARTH
REF_FRAME      = TEME
TIME_SYSTEM    = UTC
MEAN_ELEMENT_THEORY = SGP/SGP4

EPOCH          = 2025-11-18T03:20:57.672096
MEAN_MOTION    = 14.61237735
ECCENTRICITY   = .007161
INCLINATION    = 65.0769
RA_OF_ASC_NODE = 298.2406
ARG_OF_PERICENTER = 328.6431
MEAN_ANOMALY   = 31.0407

EPHEMERIS_TYPE = 0
CLASSIFICATION_TYPE = U
NORAD_CAT_ID   = 877
ELEMENT_SET_NO = 999
REV_AT_EPOCH   = 25049
BSTAR          = .15E-3
MEAN_MOTION_DOT = .644E-5
MEAN_MOTION_DDOT = 0

CCSDS_OMM_VERS = 2.0
CREATION_DATE  = 
ORIGINATOR     = 

OBJECT_NAME    = SL-8 R/B
OBJECT_ID      = 1967-045B
CENTER_NAME    = EARTH
REF_FRAME      = TEME
TIME_SYSTEM    = UTC
MEAN_ELEMENT_THEORY = SGP/SGP4

EPOCH          = 2025-11-18T02:03:21.875040
MEAN_MOTION    = 14.45510332
ECCENTRICITY   = .0065316
INCLINATION    = 74.0103
RA_OF_ASC_NODE = 196.4971
ARG_OF_PERICENTER = 231.3181
MEAN_ANOMALY   = 128.2123

EPHEMERIS_TYPE = 0
CLASSIFICATION_TYPE = U
NORAD_CAT_ID   = 2802
ELEMENT_SET_NO = 999
REV_AT_EPOCH   = 7289
BSTAR          = .13191E-3
MEAN_MOTION_DOT = .449E-5
MEAN_MOTION_DDOT = 0

CCSDS_OMM_VERS = 2.0
CREATION_DATE  = 
ORIGINATOR     = 

OBJECT_NAME    = SL-8 R/B
OBJECT_ID      = 1968-040B
CENTER_NAME    = EARTH
REF_FRAME      = TEME
TIME_SYSTEM    = UTC
MEAN_ELEMENT_THEORY = SGP/SGP4

EPOCH          = 2025-11-18T01:39:43.775424
MEAN_MOTION    = 15.02303585
ECCENTRICITY   = .0023913
INCLINATION    = 74.0301
RA_OF_ASC_NODE = 181.6009
ARG_OF_PERICENTER = 30.0150
MEAN_ANOMALY   = 330.2402

EPHEMERIS_TYPE = 0
CLASSIFICATION_TYPE = U
NORAD_CAT_ID   = 3230
ELEMENT_SET_NO = 999
REV_AT_EPOCH   = 7324
BSTAR          = .27507E-3
MEAN_MOTION_DOT = .3615E-4
MEAN_MOTION_DDOT = 0

CCSDS_OMM_VERS = 2.0
CREATION_DATE  = 
ORIGINATOR     = 

OBJECT_NAME    = OAO 2
OBJECT_ID      = 1968-110A
CENTER_NAME    = EARTH
REF_FRAME      = TEME
TIME_SYSTEM    = UTC
MEAN_ELEMENT_THEORY = SGP/SGP4

EPOCH          = 2025-11-17T22:49:31.920096
MEAN_MOTION    = 14.47222262
ECCENTRICITY   = .0005346
INCLINATION    = 34.9915
RA_OF_ASC_NODE = 169.0455
ARG_OF_PERICENTER = 13.6817
MEAN_ANOMALY   = 346.4018

EPHEMERIS_TYPE = 0
CLASSIFICATION_TYPE = U
NORAD_CAT_ID   = 3597
ELEMENT_SET_NO = 999
REV_AT_EPOCH   = 290
BSTAR          = .11184E-3
MEAN_MOTION_DOT = .395E-5
MEAN_MOTION_DDOT = 0

CCSDS_OMM_VERS = 2.0
CREATION_DATE  = 
ORIGINATOR     = 

OBJECT_NAME    = ISIS 1
OBJECT_ID      = 1969-009A
CENTER_NAME    = EARTH
REF_FRAME      = TEME
TIME_SYSTEM    = UTC
MEAN_ELEMENT_THEORY = SGP/SGP4

EPOCH          = 2025-11-17T20:03:07.155072
MEAN_MOTION    = 11.30340899
ECCENTRICITY   = .1707223
INCLINATION    = 88.4504
RA_OF_ASC_NODE = 167.5197
ARG_OF_PERICENTER = 315.0311
MEAN_ANOMALY   = 32.4200

EPHEMERIS_TYPE = 0
CLASSIFICATION_TYPE = U
NORAD_CAT_ID   = 3669
ELEMENT_SET_NO = 999
REV_AT_EPOCH   = 33589
BSTAR          = .187E-3
MEAN_MOTION_DOT = .259E-5
MEAN_MOTION_DDOT = 0

CCSDS_OMM_VERS = 2.0
CREATION_DATE  = 
ORIGINATOR     = 

OBJECT_NAME    = SERT 2
OBJECT_ID      = 1970-009A
CENTER_NAME    = EARTH
REF_FRAME      = TEME
TIME_SYSTEM    = UTC
MEAN_ELEMENT_THEORY = SGP/SGP4

EPOCH          = 2025-11-17T20:04:36.122016
MEAN_MOTION    = 13.58712950
ECCENTRICITY   = .0005688
INCLINATION    = 99.2608
RA_OF_ASC_NODE = 266.1313
ARG_OF_PERICENTER = 89.3303
MEAN_ANOMALY   = 295.8123

EPHEMERIS_TYPE = 0
CLASSIFICATION_TYPE = U
NORAD_CAT_ID   = 4327
ELEMENT_SET_NO = 999
REV_AT_EPOCH   = 76470
BSTAR          = .10153E-3
MEAN_MOTION_DOT = .33E-6
MEAN_MOTION_DDOT = 0

CCSDS_OMM_VERS = 2.0
CREATION_DATE  = 
ORIGINATOR     = 

OBJECT_NAME    = SL-3 R/B
OBJECT_ID      = 1971-028B
CENTER_NAME    = EARTH
REF_FRAME      = TEME
TIME_SYSTEM    = UTC
MEAN_ELEMENT_THEORY = SGP/SGP4

EPOCH          = 2025-11-18T03:15:22.076352
MEAN_MOTION    = 15.52799988
ECCENTRICITY   = .0020699
INCLINATION    = 81.2398
RA_OF_ASC_NODE = 188.8813
ARG_OF_PERICENTER = 330.9896
MEAN_ANOMALY   = 29.0200

EPHEMERIS_TYPE = 0
CLASSIFICATION_TYPE = U
NORAD_CAT_ID   = 5118
ELEMENT_SET_NO = 999
REV_AT_EPOCH   = 97131
BSTAR          = .46258E-3
MEAN_MOTION_DOT = .28986E-3
MEAN_MOTION_DDOT = 0

CCSDS_OMM_VERS = 2.0
CREATION_DATE  = 
ORIGINATOR     = 

OBJECT_NAME    = ASTEX 1
OBJECT_ID      = 1971-089A
CENTER_NAME    = EARTH
REF_FRAME      = TEME
TIME_SYSTEM    = UTC
MEAN_ELEMENT_THEORY = SGP/SGP4

EPOCH          = 2025-11-18T00:14:16.452096
MEAN_MOTION    = 14.50599454
ECCENTRICITY   = .001786
INCLINATION    = 92.7124
RA_OF_ASC_NODE = 115.6207
ARG_OF_PERICENTER = 100.5286
MEAN_ANOMALY   = 259.7933

EPHEMERIS_TYPE = 0
CLASSIFICATION_TYPE = U
NORAD_CAT_ID   = 5560
ELEMENT_SET_NO = 999
REV_AT_EPOCH   = 84611
BSTAR          = .23809E-3
MEAN_MOTION_DOT = .934E-5
MEAN_MOTION_DDOT = 0

CCSDS_OMM_VERS = 2.0
CREATION_DATE  = 
ORIGINATOR     = 

OBJECT_NAME    = SL-8 R/B
OBJECT_ID      = 1971-119B
CENTER_NAME    = EARTH
REF_FRAME      = TEME
TIME_SYSTEM    = UTC
MEAN_ELEMENT_THEORY = SGP/SGP4

EPOCH          = 2025-11-17T21:01:20.256096
MEAN_MOTION    = 14.35102692
ECCENTRICITY   = .0560809
INCLINATION    = 73.8899
RA_OF_ASC_NODE = 24.2989
ARG_OF_PERICENTER = 13.6163
MEAN_ANOMALY   = 347.9423

EPHEMERIS_TYPE = 0
CLASSIFICATION_TYPE = U
NORAD_CAT_ID   = 5730
ELEMENT_SET_NO = 999
REV_AT_EPOCH   = 63943
BSTAR          = .49062E-3
MEAN_MOTION_DOT = .9278E-4
MEAN_MOTION_DDOT = 0

CCSDS_OMM_VERS = 2.0
CREATION_DATE  = 
ORIGINATOR     = 

OBJECT_NAME    = OAO 3 (COPERNICUS)
OBJECT_ID      = 1972-065A
CENTER_NAME    = EARTH
REF_FRAME      = TEME
TIME_SYSTEM    = UTC
MEAN_ELEMENT_THEORY = SGP/SGP4

EPOCH          = 2025-11-17T18:40:07.231008
MEAN_MOTION    = 14.59876432
ECCENTRICITY   = .000708
INCLINATION    = 35.0048
RA_OF_ASC_NODE = 214.8619
ARG_OF_PERICENTER = 319.6710
MEAN_ANOMALY   = 77.3440

EPHEMERIS_TYPE = 0
CLASSIFICATION_TYPE = U
NORAD_CAT_ID   = 6153
ELEMENT_SET_NO = 999
REV_AT_EPOCH   = 82983
BSTAR          = .13808E-3
MEAN_MOTION_DOT = .65E-5
MEAN_MOTION_DDOT = 0

