ATLAS CENTAUR 2         
1 00694U 63047A   25321.69011003  .00005684  00000+0  68799-3 0  9996
2 00694  30.3522 101.3484 0549579 173.5558 187.2469 14.11538019115782
THOR AGENA D R/B        
1 00733U 64002A   25322.02129935  .00000312  00000+0  12886-3 0  9993
2 00733  99.1219 324.3028 0032226 222.4052 137.4640 14.33938907222299
SL-3 R/B                
1 00877U 64053B   25322.13955639  .00000644  00000+0  15000-3 0  9997
2 00877  65.0769 298.2406 0071610 328.6431  31.0407 14.61237735250494
SL-8 R/B                
1 02802U 67045B   25322.08566985  .00000449  00000+0  13191-3 0  9999
2 02802  74.0103 196.4971 0065316 231.3181 128.2123 14.45510332 72899
SL-8 R/B                
1 03230U 68040B   25322.06925666  .00003615  00000+0  27507-3 0  9998
2 03230  74.0301 181.6009 0023913  30.0150 330.2402 15.02303585 73249
OAO 2                   
1 03597U 68110A   25321.95106389  .00000395  00000+0  11184-3 0  9998
2 03597  34.9915 169.0455 0005346  13.6817 346.4018 14.47222262  2900
ISIS 1                  
1 03669U 69009A   25321.83549948  .00000259  00000+0  18700-3 0  9995
2 03669  88.4504 167.5197 1707223 315.0311  32.4200 11.30340899335894
SERT 2                  
1 04327U 70009A   25321.83652919  .00000033  00000+0  10153-3 0  9996
2 04327  99.2608 266.1313 0005688  89.3303 295.8123 13.58712950764702
SL-3 R/B                
1 05118U 71028B   25322.13567218  .00028986  00000+0  46258-3 0  9990
2 05118  81.2398 188.8813 0020699 330.9896  29.0200 15.52799988971316
ASTEX 1                 
1 05560U 71089A   25322.00991264  .00000934  00000+0  23809-3 0  9996
2 05560  92.7124 115.6207 0017860 100.5286 259.7933 14.50599454846113
SL-8 R/B                
1 05730U 71119B   25321.87592889  .00009278  00000+0  49062-3 0  9992
2 05730  73.8899  24.2989 0560809  13.6163 347.9423 14.35102692639433
OAO 3 (COPERNICUS)      
1 06153U 72065A   25321.77786147  .00000650  00000+0  13808-3 0  9998
2 06153  35.0048 214.8619 0007080 319.6710  77.3440 14.59876432829834
